STARLINK-32107          
1 59694U 24086N   26068.32654658 -.00000400  00000+0 -49985-5 0  9999
2 59694  43.0007  62.1957 0001118 273.6734  86.3989 15.27576443104059
FLOCK 4G-8              
1 62613U 25009E   26068.72381419  .00013559  00000+0  50438-3 0  9996
2 62613  97.4045 151.2834 0003050 315.2538  44.8455 15.27623414 63721
